[{"OBJECT_NAME":"NUSAT-35 (WILLIAMINA)","OBJECT_ID":"2023-001AR","EPOCH":"2026-03-09T22:28:40.425600","MEAN_MOTION":15.3245616,"ECCENTRICITY":0.00136635,"INCLINATION":97.1993,"RA_OF_ASC_NODE":124.278,"ARG_OF_PERICENTER":97.0313,"MEAN_ANOMALY":263.2484,"EPHEMERIS_TYPE":0,"CLASSIFICATION_TYPE":"U","NORAD_CAT_ID":55048,"ELEMENT_SET_NO":999,"REV_AT_EPOCH":17719,"BSTAR":0.00053479647,"MEAN_MOTION_DOT":0.0001675,"MEAN_MOTION_DDOT":0},{"OBJECT_NAME":"ERNST","OBJECT_ID":"2024-149BN","EPOCH":"2026-03-09T19:27:38.265120","MEAN_MOTION":15.36382433,"ECCENTRICITY":0.00049076,"INCLINATION":97.3842,"RA_OF_ASC_NODE":151.9807,"ARG_OF_PERICENTER":295.1196,"MEAN_ANOMALY":64.9538,"EPHEMERIS_TYPE":0,"CLASSIFICATION_TYPE":"U","NORAD_CAT_ID":60528,"ELEMENT_SET_NO":999,"REV_AT_EPOCH":8700,"BSTAR":0.00049130979,"MEAN_MOTION_DOT":0.00017377,"MEAN_MOTION_DDOT":0}]
